[{"OBJECT_NAME":"STARLINK-36269","OBJECT_ID":"2026-008AD","EPOCH":"2026-03-09T09:18:32.952960","MEAN_MOTION":15.27599674,"ECCENTRICITY":9.872e-5,"INCLINATION":43.0007,"RA_OF_ASC_NODE":207.1226,"ARG_OF_PERICENTER":223.7297,"MEAN_ANOMALY":136.3477,"EPHEMERIS_TYPE":0,"CLASSIFICATION_TYPE":"U","NORAD_CAT_ID":67472,"ELEMENT_SET_NO":999,"REV_AT_EPOCH":952,"BSTAR":0.0012919086,"MEAN_MOTION_DOT":0.00035481,"MEAN_MOTION_DDOT":0},{"OBJECT_NAME":"FENGYUN 1C DEB","OBJECT_ID":"1999-025ETT","EPOCH":"2026-03-07T08:30:03.670560","MEAN_MOTION":15.28888299,"ECCENTRICITY":0.00158464,"INCLINATION":99.1103,"RA_OF_ASC_NODE":112.0072,"ARG_OF_PERICENTER":201.0032,"MEAN_ANOMALY":159.0553,"EPHEMERIS_TYPE":0,"CLASSIFICATION_TYPE":"U","NORAD_CAT_ID":38726,"ELEMENT_SET_NO":999,"REV_AT_EPOCH":71135,"BSTAR":0.013792546,"MEAN_MOTION_DOT":0.00409659,"MEAN_MOTION_DDOT":0}]
